[{"OBJECT_NAME":"STARLINK-4128","OBJECT_ID":"2022-086H","EPOCH":"2025-12-29T16:40:33.896064","MEAN_MOTION":15.08836832,"ECCENTRICITY":0.0001198,"INCLINATION":53.2172,"RA_OF_ASC_NODE":148.3489,"ARG_OF_PERICENTER":89.3849,"MEAN_ANOMALY":270.7281,"EPHEMERIS_TYPE":0,"CLASSIFICATION_TYPE":"U","NORAD_CAT_ID":53249,"ELEMENT_SET_NO":999,"REV_AT_EPOCH":19051,"BSTAR":-5.3643e-5,"MEAN_MOTION_DOT":-1.141e-5,"MEAN_MOTION_DDOT":0},{"OBJECT_NAME":"STARLINK-4059","OBJECT_ID":"2022-086J","EPOCH":"2025-12-29T16:44:28.518720","MEAN_MOTION":15.08836499,"ECCENTRICITY":0.0001199,"INCLINATION":53.2169,"RA_OF_ASC_NODE":148.3268,"ARG_OF_PERICENTER":90.2934,"MEAN_ANOMALY":269.8196,"EPHEMERIS_TYPE":0,"CLASSIFICATION_TYPE":"U","NORAD_CAT_ID":53250,"ELEMENT_SET_NO":999,"REV_AT_EPOCH":19051,"BSTAR":-1.2609e-5,"MEAN_MOTION_DOT":-4.88e-6,"MEAN_MOTION_DDOT":0},{"OBJECT_NAME":"STARLINK-4129","OBJECT_ID":"2022-086K","EPOCH":"2025-12-29T16:28:36.062400","MEAN_MOTION":15.0883667,"ECCENTRICITY":0.0001529,"INCLINATION":53.2177,"RA_OF_ASC_NODE":148.3792,"ARG_OF_PERICENTER":97.8436,"MEAN_ANOMALY":262.273,"EPHEMERIS_TYPE":0,"CLASSIFICATION_TYPE":"U","NORAD_CAT_ID":53251,"ELEMENT_SET_NO":999,"REV_AT_EPOCH":19049,"BSTAR":-3.379e-5,"MEAN_MOTION_DOT":-8.26e-6,"MEAN_MOTION_DDOT":0},{"OBJECT_NAME":"STARLINK-4132","OBJECT_ID":"2022-086L","EPOCH":"2025-12-29T16:33:52.135200","MEAN_MOTION":15.08850615,"ECCENTRICITY":0.0001351,"INCLINATION":53.2168,"RA_OF_ASC_NODE":148.3124,"ARG_OF_PERICENTER":77.5222,"MEAN_ANOMALY":282.5921,"EPHEMERIS_TYPE":0,"CLASSIFICATION_TYPE":"U","NORAD_CAT_ID":53252,"ELEMENT_SET_NO":999,"REV_AT_EPOCH":19051,"BSTAR":0.00020728,"MEAN_MOTION_DOT":3.013e-5,"MEAN_MOTION_DDOT":0},{"OBJECT_NAME":"STARLINK-4133","OBJECT_ID":"2022-086M","EPOCH":"2025-12-29T16:23:16.443744","MEAN_MOTION":15.08840854,"ECCENTRICITY":0.000125,"INCLINATION":53.2168,"RA_OF_ASC_NODE":148.3932,"ARG_OF_PERICENTER":86.1413,"MEAN_ANOMALY":273.9722,"EPHEMERIS_TYPE":0,"CLASSIFICATION_TYPE":"U","NORAD_CAT_ID":53253,"ELEMENT_SET_NO":999,"REV_AT_EPOCH":19049,"BSTAR":2.0987e-5,"MEAN_MOTION_DOT":4.6e-7,"MEAN_MOTION_DDOT":0},{"OBJECT_NAME":"STARLINK-4134","OBJECT_ID":"2022-086N","EPOCH":"2025-12-29T16:35:15.289152","MEAN_MOTION":15.08839076,"ECCENTRICITY":0.0001281,"INCLINATION":53.217,"RA_OF_ASC_NODE":148.3639,"ARG_OF_PERICENTER":92.548,"MEAN_ANOMALY":267.5659,"EPHEMERIS_TYPE":0,"CLASSIFICATION_TYPE":"U","NORAD_CAT_ID":53254,"ELEMENT_SET_NO":999,"REV_AT_EPOCH":19051,"BSTAR":2.2859e-5,"MEAN_MOTION_DOT":7.6e-7,"MEAN_MOTION_DDOT":0},{"OBJECT_NAME":"STARLINK-4142","OBJECT_ID":"2022-086P","EPOCH":"2025-12-29T16:12:41.776128","MEAN_MOTION":15.08850872,"ECCENTRICITY":0.0001553,"INCLINATION":53.216,"RA_OF_ASC_NODE":148.4285,"ARG_OF_PERICENTER":99.0086,"MEAN_ANOMALY":261.1082,"EPHEMERIS_TYPE":0,"CLASSIFICATION_TYPE":"U","NORAD_CAT_ID":53255,"ELEMENT_SET_NO":999,"REV_AT_EPOCH":19049,"BSTAR":0.00038546,"MEAN_MOTION_DOT":5.854e-5,"MEAN_MOTION_DDOT":0},{"OBJECT_NAME":"STARLINK-4147","OBJECT_ID":"2022-086Q","EPOCH":"2025-12-29T16:17:58.547904","MEAN_MOTION":15.08842218,"ECCENTRICITY":0.000128,"INCLINATION":53.2167,"RA_OF_ASC_NODE":148.4114,"ARG_OF_PERICENTER":83.7656,"MEAN_ANOMALY":276.3482,"EPHEMERIS_TYPE":0,"CLASSIFICATION_TYPE":"U","NORAD_CAT_ID":53256,"ELEMENT_SET_NO":999,"REV_AT_EPOCH":19049,"BSTAR":5.3931e-5,"MEAN_MOTION_DOT":5.71e-6,"MEAN_MOTION_DDOT":0},{"OBJECT_NAME":"STARLINK-4144","OBJECT_ID":"2022-086R","EPOCH":"2025-12-29T17:32:10.135104","MEAN_MOTION":15.08840654,"ECCENTRICITY":0.0001212,"INCLINATION":53.2176,"RA_OF_ASC_NODE":148.1797,"ARG_OF_PERICENTER":92.162,"MEAN_ANOMALY":267.9511,"EPHEMERIS_TYPE":0,"CLASSIFICATION_TYPE":"U","NORAD_CAT_ID":53257,"ELEMENT_SET_NO":999,"REV_AT_EPOCH":19050,"BSTAR":5.2475e-5,"MEAN_MOTION_DOT":5.47e-6,"MEAN_MOTION_DDOT":0},{"OBJECT_NAME":"STARLINK-4127","OBJECT_ID":"2022-086S","EPOCH":"2025-12-29T14:31:59.304000","MEAN_MOTION":15.08842991,"ECCENTRICITY":0.0001224,"INCLINATION":53.2166,"RA_OF_ASC_NODE":148.7419,"ARG_OF_PERICENTER":89.6147,"MEAN_ANOMALY":270.4986,"EPHEMERIS_TYPE":0,"CLASSIFICATION_TYPE":"U","NORAD_CAT_ID":53258,"ELEMENT_SET_NO":999,"REV_AT_EPOCH":19048,"BSTAR":4.9365e-5,"MEAN_MOTION_DOT":4.98e-6,"MEAN_MOTION_DDOT":0},{"OBJECT_NAME":"STARLINK-4140","OBJECT_ID":"2022-086T","EPOCH":"2025-12-29T16:39:06.454080","MEAN_MOTION":15.08840687,"ECCENTRICITY":8.68e-5,"INCLINATION":53.2173,"RA_OF_ASC_NODE":147.9864,"ARG_OF_PERICENTER":96.2115,"MEAN_ANOMALY":263.8976,"EPHEMERIS_TYPE":0,"CLASSIFICATION_TYPE":"U","NORAD_CAT_ID":53259,"ELEMENT_SET_NO":999,"REV_AT_EPOCH":19050,"BSTAR":-3.8414e-5,"MEAN_MOTION_DOT":-8.99e-6,"MEAN_MOTION_DDOT":0},{"OBJECT_NAME":"STARLINK-4062","OBJECT_ID":"2022-086V","EPOCH":"2025-12-29T17:16:16.629888","MEAN_MOTION":15.08830958,"ECCENTRICITY":0.0001119,"INCLINATION":53.2175,"RA_OF_ASC_NODE":148.2272,"ARG_OF_PERICENTER":89.3544,"MEAN_ANOMALY":270.7576,"EPHEMERIS_TYPE":0,"CLASSIFICATION_TYPE":"U","NORAD_CAT_ID":53261,"ELEMENT_SET_NO":999,"REV_AT_EPOCH":19050,"BSTAR":2.1044e-5,"MEAN_MOTION_DOT":4.7e-7,"MEAN_MOTION_DDOT":0},{"OBJECT_NAME":"STARLINK-4085","OBJECT_ID":"2022-086W","EPOCH":"2025-12-29T17:26:52.031040","MEAN_MOTION":15.08842412,"ECCENTRICITY":0.0001226,"INCLINATION":53.2176,"RA_OF_ASC_NODE":148.1966,"ARG_OF_PERICENTER":86.1414,"MEAN_ANOMALY":273.9718,"EPHEMERIS_TYPE":0,"CLASSIFICATION_TYPE":"U","NORAD_CAT_ID":53262,"ELEMENT_SET_NO":999,"REV_AT_EPOCH":19050,"BSTAR":6.4852e-5,"MEAN_MOTION_DOT":7.44e-6,"MEAN_MOTION_DDOT":0},{"OBJECT_NAME":"STARLINK-4130","OBJECT_ID":"2022-086X","EPOCH":"2025-12-29T17:10:58.353888","MEAN_MOTION":15.08838243,"ECCENTRICITY":0.0001237,"INCLINATION":53.2164,"RA_OF_ASC_NODE":148.2431,"ARG_OF_PERICENTER":84.2266,"MEAN_ANOMALY":275.8868,"EPHEMERIS_TYPE":0,"CLASSIFICATION_TYPE":"U","NORAD_CAT_ID":53263,"ELEMENT_SET_NO":999,"REV_AT_EPOCH":19050,"BSTAR":1.4432e-5,"MEAN_MOTION_DOT":-5.8e-7,"MEAN_MOTION_DDOT":0},{"OBJECT_NAME":"STARLINK-3950","OBJECT_ID":"2022-086Y","EPOCH":"2025-12-29T17:21:34.003008","MEAN_MOTION":15.08841753,"ECCENTRICITY":0.0001503,"INCLINATION":53.2168,"RA_OF_ASC_NODE":148.2101,"ARG_OF_PERICENTER":109.8229,"MEAN_ANOMALY":250.2925,"EPHEMERIS_TYPE":0,"CLASSIFICATION_TYPE":"U","NORAD_CAT_ID":53264,"ELEMENT_SET_NO":999,"REV_AT_EPOCH":19050,"BSTAR":7.172e-5,"MEAN_MOTION_DOT":8.54e-6,"MEAN_MOTION_DDOT":0},{"OBJECT_NAME":"STARLINK-4097","OBJECT_ID":"2022-086Z","EPOCH":"2025-12-29T17:00:22.481856","MEAN_MOTION":15.08838586,"ECCENTRICITY":0.0001291,"INCLINATION":53.2177,"RA_OF_ASC_NODE":148.2767,"ARG_OF_PERICENTER":90.5018,"MEAN_ANOMALY":269.6122,"EPHEMERIS_TYPE":0,"CLASSIFICATION_TYPE":"U","NORAD_CAT_ID":53265,"ELEMENT_SET_NO":999,"REV_AT_EPOCH":19050,"BSTAR":1.6574e-5,"MEAN_MOTION_DOT":-2.4e-7,"MEAN_MOTION_DDOT":0},{"OBJECT_NAME":"STARLINK-4058","OBJECT_ID":"2022-086AA","EPOCH":"2025-12-29T15:30:17.321184","MEAN_MOTION":15.08835417,"ECCENTRICITY":0.0001407,"INCLINATION":53.2183,"RA_OF_ASC_NODE":148.5586,"ARG_OF_PERICENTER":82.418,"MEAN_ANOMALY":277.6972,"EPHEMERIS_TYPE":0,"CLASSIFICATION_TYPE":"U","NORAD_CAT_ID":53266,"ELEMENT_SET_NO":999,"REV_AT_EPOCH":19049,"BSTAR":-5.9701e-6,"MEAN_MOTION_DOT":-3.83e-6,"MEAN_MOTION_DDOT":0}]
