STARLINK-4128           
1 53249U 22086H   25363.69483676 -.00001141  00000+0 -53643-4 0  9992
2 53249  53.2172 148.3489 0001198  89.3849 270.7281 15.08836832190519
STARLINK-4059           
1 53250U 22086J   25363.69755230 -.00000488  00000+0 -12609-4 0  9992
2 53250  53.2169 148.3268 0001199  90.2934 269.8196 15.08836499190512
STARLINK-4129           
1 53251U 22086K   25363.68652850 -.00000826  00000+0 -33790-4 0  9996
2 53251  53.2177 148.3792 0001529  97.8436 262.2730 15.08836670190490
STARLINK-4132           
1 53252U 22086L   25363.69018675  .00003013  00000+0  20728-3 0  9994
2 53252  53.2168 148.3124 0001351  77.5222 282.5921 15.08850615190516
STARLINK-4133           
1 53253U 22086M   25363.68282921  .00000046  00000+0  20987-4 0  9992
2 53253  53.2168 148.3932 0001250  86.1413 273.9722 15.08840854190494
STARLINK-4134           
1 53254U 22086N   25363.69114918  .00000076  00000+0  22859-4 0  9997
2 53254  53.2170 148.3639 0001281  92.5480 267.5659 15.08839076190516
STARLINK-4142           
1 53255U 22086P   25363.67548352  .00005854  00000+0  38546-3 0  9997
2 53255  53.2160 148.4285 0001553  99.0086 261.1082 15.08850872190494
STARLINK-4147           
1 53256U 22086Q   25363.67914986  .00000571  00000+0  53931-4 0  9995
2 53256  53.2167 148.4114 0001280  83.7656 276.3482 15.08842218190490
STARLINK-4144           
1 53257U 22086R   25363.73067286  .00000547  00000+0  52475-4 0  9990
2 53257  53.2176 148.1797 0001212  92.1620 267.9511 15.08840654190508
STARLINK-4127           
1 53258U 22086S   25363.60554750  .00000498  00000+0  49365-4 0  9993
2 53258  53.2166 148.7419 0001224  89.6147 270.4986 15.08842991190481
STARLINK-4140           
1 53259U 22086T   25363.69382470 -.00000899  00000+0 -38414-4 0  9991
2 53259  53.2173 147.9864 0000868  96.2115 263.8976 15.08840687190505
STARLINK-4062           
1 53261U 22086V   25363.71963692  .00000047  00000+0  21044-4 0  9992
2 53261  53.2175 148.2272 0001119  89.3544 270.7576 15.08830958190509
STARLINK-4085           
1 53262U 22086W   25363.72699110  .00000744  00000+0  64852-4 0  9993
2 53262  53.2176 148.1966 0001226  86.1414 273.9718 15.08842412190501
STARLINK-4130           
1 53263U 22086X   25363.71595317 -.00000058  00000+0  14432-4 0  9995
2 53263  53.2164 148.2431 0001237  84.2266 275.8868 15.08838243190507
STARLINK-3950           
1 53264U 22086Y   25363.72331022  .00000854  00000+0  71720-4 0  9994
2 53264  53.2168 148.2101 0001503 109.8229 250.2925 15.08841753190506
STARLINK-4097           
1 53265U 22086Z   25363.70859354 -.00000024  00000+0  16574-4 0  9992
2 53265  53.2177 148.2767 0001291  90.5018 269.6122 15.08838586190504
STARLINK-4058           
1 53266U 22086AA  25363.64603381 -.00000383  00000+0 -59701-5 0  9992
2 53266  53.2183 148.5586 0001407  82.4180 277.6972 15.08835417190493
